satname,norad_id,inclination_deg,eccentricity,mean_motion_rev_per_day,perigee_km,apogee_km,l1,l2
STARLINK-1347,45586,53.0529,0.0010328,15.35516491,452.32500997504303,466.44859914574135,1 45586U 20025BH  25330.78279088  .00105652  00000+0  29818-2 0  9997,2 45586  53.0529 159.0777 0010328 107.9928 252.2200 15.35516491310265
STARLINK-1360,45588,53.0402,0.0002648,15.82978776,320.2478646243162,323.79626886606457,1 45588U 20025BK  25330.91673610  .00134324  00000+0  61061-3 0  9998,2 45588  53.0402  68.3713 0002648 322.3515  54.3695 15.82978776  6058
STARLINK-1364,45589,53.0514,0.0001488,15.06393425,546.2012145756353,548.2622043035644,1 45589U 20025BL  25330.78523662 -.00000021  00000+0  17493-4 0  9993,2 45589  53.0514 178.5780 0001488  96.4795 263.6364 15.06393425309996
STARLINK-1365,45590,53.052,0.000162,15.06398621,546.0938772268191,548.3376915289582,1 45590U 20025BM  25330.66820545 -.00000196  00000+0  57465-5 0  9999,2 45590  53.0520 209.0982 0001620  93.8200 266.2974 15.06398621309572
STARLINK-1443,45660,53.0526,0.0001123,15.06334814,546.6336117646397,548.1890899242389,1 45660U 20035D   25330.78617620 -.00020005  00000+0 -13303-2 0  9991,2 45660  53.0526 168.5724 0001123  92.4373 267.6744 15.06334814303223
STARLINK-1446,45663,53.0264,7.31e-05,15.36232138,456.76348493285786,457.7628204351813,1 45663U 20035G   25330.76186310  .00032899  00000+0  92494-3 0  9990,2 45663  53.0264 126.2531 0000731 166.5592 193.5429 15.36232138303813
STARLINK-1448,45665,53.0543,0.000182,15.06392674,545.9735936401039,548.4944286881673,1 45665U 20035J   25330.78983531 -.00001371  00000+0 -73135-4 0  9999,2 45665  53.0543 168.5509 0001820  94.7605 265.3592 15.06392674303218
STARLINK-1451,45668,53.0531,0.0001507,15.06393828,546.1868214155566,548.2741271723089,1 45668U 20035M   25330.79356117 -.00001079  00000+0 -53537-4 0  9996,2 45668  53.0531 168.8550 0001507  92.0836 268.0325 15.06393828303223
STARLINK-1452,45669,53.0364,0.0011816,15.29274319,469.8791918226698,486.08156841536675,1 45669U 20035N   25330.72527571  .00062493  00000+0  21611-2 0  9995,2 45669  53.0364 146.1309 0011816 111.4537 248.7723 15.29274319303536
STARLINK-1453,45670,53.0552,0.0001233,15.12587257,527.4616109729841,529.1647415864545,1 45670U 20035P   25330.91673610  .00051057  00000+0  28883-2 0  9996,2 45670  53.0552 137.6626 0001233  62.8887 358.1595 15.12587257  5850
STARLINK-1454,45671,53.0536,0.0001628,15.06395974,546.096448321864,548.3513458299522,1 45671U 20035Q   25330.74929640  .00000246  00000+0  35406-4 0  9990,2 45671  53.0536 168.7388 0001628  95.5101 264.6074 15.06395974303202
STARLINK-1456,45673,53.0518,0.0001372,15.06395425,546.2754199439105,548.1757394357764,1 45673U 20035S   25330.76403522  .00002276  00000+0  17168-3 0  9999,2 45673  53.0518 168.6712 0001372  91.2031 268.9115 15.06395425303221
STARLINK-1457,45674,53.0533,0.0001324,15.44044433,433.28531284529527,435.08921631055637,1 45674U 20035T   25330.80549054  .00104305  00000+0  22280-2 0  9992,2 45674  53.0533 163.9214 0001324 137.2564 222.8544 15.44044433303264
STARLINK-1458,45675,53.0519,0.000178,15.06403641,545.967688763164,548.4331088771442,1 45675U 20035U   25330.76034807  .00001687  00000+0  13209-3 0  9994,2 45675  53.0519 168.6854 0001780  90.9873 269.1320 15.06403641303180
STARLINK-1460,45676,53.0528,0.0001563,15.06393403,546.1493417270995,548.3142120067478,1 45676U 20035V   25330.79721082 -.00001682  00000+0 -94054-4 0  9991,2 45676  53.0528 168.5214 0001563  89.8185 270.2983 15.06393403303184
STARLINK-1392,45677,53.0524,0.0001932,15.06405618,545.8563656161123,548.5323136457455,1 45677U 20035W   25330.74192810  .00001229  00000+0  10138-3 0  9993,2 45677  53.0524 168.7716 0001932  70.4944 289.6253 15.06405618303219
STARLINK-1394,45679,53.0517,0.0001466,15.06399768,546.1970127821214,548.2275251877891,1 45679U 20035Y   25330.73915418 -.00000129  00000+0  10219-4 0  9991,2 45679  53.0517 158.7803 0001466  93.9723 266.1433 15.06399768303359
STARLINK-1402,45685,53.0539,0.000436,15.29496519,474.32736426298834,480.30531957714356,1 45685U 20035AE  25330.82924231  .00051415  00000+0  17736-2 0  9993,2 45685  53.0539 147.1242 0004360 170.0551 190.0535 15.29496519303536
STARLINK-1404,45686,53.054,0.0001457,15.06396443,546.2134347791552,548.2314845256979,1 45686U 20035AF  25330.76495946 -.00000049  00000+0  15591-4 0  9990,2 45686  53.0540 158.6688 0001457  94.1338 265.9818 15.06396443303360
STARLINK-1413,45689,53.052,0.0001467,15.06396053,546.207704543137,548.2396053593002,1 45689U 20035AJ  25330.78338727  .00000121  00000+0  27005-4 0  9991,2 45689  53.0520 158.5814 0001467  91.4104 268.7053 15.06396053303272
STARLINK-1417,45693,53.0513,0.0001649,15.06780071,544.9051419933949,547.1887378567817,1 45693U 20035AN  25330.77848986  .00018138  00000+0  12209-2 0  9993,2 45693  53.0513 158.5942 0001649 119.4390 240.6764 15.06780071303355
STARLINK-1420,45695,53.0544,0.0001471,15.06394862,546.2085841237322,548.2460263023249,1 45695U 20035AQ  25330.78060209  .00000170  00000+0  30339-4 0  9993,2 45695  53.0544 138.5853 0001471  93.6683 266.4474 15.06394862303646
STARLINK-1422,45696,53.0516,0.0001589,15.06396913,546.1205797755792,548.32145855407,1 45696U 20035AR  25330.79075943  .00000270  00000+0  37040-4 0  9993,2 45696  53.0516 158.5519 0001589  97.6915 262.4255 15.06396913303359
STARLINK-1351,45697,53.0541,0.0001345,15.06396135,546.2919426576536,548.1548646062301,1 45697U 20035AS  25330.70045382  .00000033  00000+0  21100-4 0  9996,2 45697  53.0541 138.9566 0001345  87.7347 272.3796 15.06396135303638
STARLINK-1398,45699,53.0476,0.0002759,15.55926097,397.59197550578665,401.3318545871098,1 45699U 20035AU  25330.81901075  .00054408  00000+0  77194-3 0  9998,2 45699  53.0476  89.1902 0002759 199.8368 160.2536 15.55926097304342
STARLINK-1400,45700,53.0518,0.0001444,15.06393039,546.2328690703907,548.2329158953389,1 45700U 20035AV  25330.74100105  .00000032  00000+0  21017-4 0  9996,2 45700  53.0518 138.7722 0001444  93.7314 266.3840 15.06393039303633
STARLINK-1403,45701,53.0539,0.0001499,15.06396767,546.1833554012119,548.2595778695104,1 45701U 20035AW  25330.77048911 -.00000049  00000+0  15636-4 0  9995,2 45701  53.0539 138.6421 0001499  91.7776 268.3384 15.06396767303638
STARLINK-1407,45703,53.0403,0.0010411,15.4427935,426.404791431135,440.58797446110475,1 45703U 20035AY  25330.65534950  .00025143  00000+0  54426-3 0  9997,2 45703  53.0403  90.9694 0010411 140.2413 219.9357 15.44279350304301
STARLINK-1411,45706,53.0511,6.75e-05,15.44259962,433.0936065559781,434.01318475939206,1 45706U 20035BB  25330.73497448  .00048532  00000+0  10414-2 0  9994,2 45706  53.0511 117.8251 0000675 276.8134  83.2795 15.44259962303921
STARLINK-1423,45710,53.0531,0.0001431,15.06396181,546.2322435943834,548.2142817015538,1 45710U 20035BF  25330.79628944  .00000688  00000+0  65114-4 0  9991,2 45710  53.0531 138.5258 0001431  91.2499 268.8654 15.06396181303646
STARLINK-1433,45711,53.0544,0.0001415,15.06392675,546.2540681016089,548.2139480969017,1 45711U 20035BG  25330.77786352 -.00000034  00000+0  16602-4 0  9992,2 45711  53.0544 138.6072 0001415  92.3227 267.7924 15.06392675303630
STARLINK-1434,45712,53.0484,0.0006508,15.17197874,509.82845188844203,518.7996661868856,1 45712U 20035BH  25330.76722058  .00040693  00000+0  20264-2 0  9996,2 45712  53.0484 132.9887 0006508 143.7907 216.3528 15.17197874303725
STARLINK-1465,45731,53.0557,0.0001221,15.06401634,546.3609655206919,548.0521344155941,1 45731U 20038B   25330.34659333  .00003336  00000+0  24275-3 0  9999,2 45731  53.0557 340.5427 0001221  90.1252 269.9877 15.06401634300615
STARLINK-1471,45735,53.0498,0.0001571,15.42281407,438.30681956595436,440.44888273218567,1 45735U 20038F   25330.55094788  .00022406  00000+0  52068-3 0  9993,2 45735  53.0498 273.4278 0001571  81.2575 278.8608 15.42281407301580
STARLINK-1474,45738,53.0333,0.0003993,15.72142258,350.0878806257624,355.46318737541515,1 45738U 20038J   25330.69998073  .00101190  00000+0  74933-3 0  9994,2 45738  53.0333 224.7251 0003993  89.5933 270.5542 15.72142258302276
STARLINK-1475,45739,53.0406,0.0003071,15.95509229,284.8490177286767,288.94268090472633,1 45739U 20038K   25330.91673610  .00389804  71858-4  96010-3 0  9991,2 45739  53.0406 187.0372 0003071 154.3436  91.6319 15.95509229  6061
STARLINK-1480,45741,53.0557,0.0001401,15.06405724,546.2237758830679,548.1642536334039,1 45741U 20038M   25330.32816667  .00001480  00000+0  11820-3 0  9993,2 45741  53.0557 340.6254 0001401  94.7839 265.3310 15.06405724300623
STARLINK-1500,45744,53.0394,0.000159,15.28951542,477.8550001687727,480.0355523326198,1 45744U 20038Q   25330.26501503  .00021824  00000+0  77588-3 0  9996,2 45744  53.0394 315.7120 0001590 353.4245   6.6733 15.28951542300965
STARLINK-1504,45746,53.0275,0.0002939,15.42950599,435.4034074081437,439.4095838748808,1 45746U 20038S   25330.56844807  .00044179  00000+0  99207-3 0  9998,2 45746  53.0275 276.3995 0002939  39.5449 320.5769 15.42950599301531
STARLINK-1506,45747,53.0657,0.000276,15.22245477,497.17109752214765,500.9673153480999,1 45747U 20038T   25330.39628032  .00010961  00000+0  48403-3 0  9994,2 45747  53.0657 318.8475 0002760 348.4634  11.6298 15.22245477300939
STARLINK-1464,45751,53.0548,0.0001325,15.06416483,546.2434383875498,548.0786423682503,1 45751U 20038X   25330.19732189  .00002975  00000+0  21841-3 0  9999,2 45751  53.0548 321.2147 0001325  87.1151 272.9989 15.06416483300886
STARLINK-1477,45754,53.0544,0.0004589,15.08137096,538.7171180753039,545.068321352057,1 45754U 20038AA  25330.26046851  .00030186  00000+0  19430-2 0  9999,2 45754  53.0544 320.7396 0004589  48.9509 311.1877 15.08137096300897
STARLINK-1478,45755,53.0545,0.0001542,15.06406609,546.1234167549765,548.2591880034306,1 45755U 20038AB  25330.36318496  .00009325  00000+0  64399-3 0  9994,2 45755  53.0545 320.4668 0001542  91.0113 269.1052 15.06406609300898
